[{"OBJECT_NAME":"FLOCK 4BE-12","OBJECT_ID":"2024-149CW","EPOCH":"2026-03-28T20:27:22.315104","MEAN_MOTION":15.5134902,"ECCENTRICITY":0.00072777,"INCLINATION":97.3716,"RA_OF_ASC_NODE":172.2375,"ARG_OF_PERICENTER":212.9251,"MEAN_ANOMALY":147.1549,"EPHEMERIS_TYPE":0,"CLASSIFICATION_TYPE":"U","NORAD_CAT_ID":60560,"ELEMENT_SET_NO":999,"REV_AT_EPOCH":9003,"BSTAR":0.0025306495,"MEAN_MOTION_DOT":0.00151427,"MEAN_MOTION_DDOT":0},{"OBJECT_NAME":"FLOCK 4BE-3","OBJECT_ID":"2024-149CX","EPOCH":"2026-03-28T18:51:28.196064","MEAN_MOTION":15.38925748,"ECCENTRICITY":0.00045485,"INCLINATION":97.3718,"RA_OF_ASC_NODE":171.0781,"ARG_OF_PERICENTER":197.1834,"MEAN_ANOMALY":162.9258,"EPHEMERIS_TYPE":0,"CLASSIFICATION_TYPE":"U","NORAD_CAT_ID":60561,"ELEMENT_SET_NO":999,"REV_AT_EPOCH":8996,"BSTAR":0.0005746811,"MEAN_MOTION_DOT":0.00022097,"MEAN_MOTION_DDOT":0},{"OBJECT_NAME":"FLOCK 4BE-19","OBJECT_ID":"2024-149CZ","EPOCH":"2026-03-28T18:21:32.659776","MEAN_MOTION":15.41217566,"ECCENTRICITY":0.00043062,"INCLINATION":97.3762,"RA_OF_ASC_NODE":172.2373,"ARG_OF_PERICENTER":201.6408,"MEAN_ANOMALY":158.4657,"EPHEMERIS_TYPE":0,"CLASSIFICATION_TYPE":"U","NORAD_CAT_ID":60563,"ELEMENT_SET_NO":999,"REV_AT_EPOCH":9002,"BSTAR":0.00062508248,"MEAN_MOTION_DOT":0.00025937,"MEAN_MOTION_DDOT":0},{"OBJECT_NAME":"PELICAN-2","OBJECT_ID":"2025-009Y","EPOCH":"2026-03-28T19:49:27.219072","MEAN_MOTION":15.4030879,"ECCENTRICITY":0.0005194,"INCLINATION":97.3964,"RA_OF_ASC_NODE":178.3587,"ARG_OF_PERICENTER":155.0098,"MEAN_ANOMALY":205.1401,"EPHEMERIS_TYPE":0,"CLASSIFICATION_TYPE":"U","NORAD_CAT_ID":62631,"ELEMENT_SET_NO":999,"REV_AT_EPOCH":6718,"BSTAR":0.0011785427,"MEAN_MOTION_DOT":0.0004767,"MEAN_MOTION_DDOT":0},{"OBJECT_NAME":"PELICAN-3","OBJECT_ID":"2025-188A","EPOCH":"2026-03-27T05:05:20.577408","MEAN_MOTION":15.40613176,"ECCENTRICITY":0.0004743,"INCLINATION":97.2211,"RA_OF_ASC_NODE":163.5554,"ARG_OF_PERICENTER":201.4975,"MEAN_ANOMALY":158.6074,"EPHEMERIS_TYPE":0,"CLASSIFICATION_TYPE":"U","NORAD_CAT_ID":65315,"ELEMENT_SET_NO":999,"REV_AT_EPOCH":3269,"BSTAR":0.00055766,"MEAN_MOTION_DOT":0.00022666,"MEAN_MOTION_DDOT":0},{"OBJECT_NAME":"PELICAN-4","OBJECT_ID":"2025-188B","EPOCH":"2026-03-28T04:50:51.613728","MEAN_MOTION":15.40566556,"ECCENTRICITY":0.0003652,"INCLINATION":97.2293,"RA_OF_ASC_NODE":164.6477,"ARG_OF_PERICENTER":210.3305,"MEAN_ANOMALY":149.7731,"EPHEMERIS_TYPE":0,"CLASSIFICATION_TYPE":"U","NORAD_CAT_ID":65316,"ELEMENT_SET_NO":999,"REV_AT_EPOCH":3284,"BSTAR":0.00025162568,"MEAN_MOTION_DOT":0.00010149,"MEAN_MOTION_DDOT":0}]
